CS1                     
1 49261U 21088B   26068.75173904  .00015722  00000+0  51176-3 0  9998
2 49261  97.3882 132.1684 0014129  78.0335 282.2490 15.31848439245182
STARLINK-35767          
1 67058U 25294AE  26068.28181702  .00036113  00000+0  13143-2 0  9996
2 67058  43.0039  40.6469 0004230 243.6710 116.3707 15.27600826 14735
